{
  "type": "FeatureCollection",
  "features": [
    {
      "type": "Feature",
      "properties": {
        "norad_id": 34366,
        "name": "IRIDIUM 33 DEB",
        "group": "iridium-33-debris",
        "lat": 80.09503470026735,
        "lon": -158.60781356856086,
        "alt_km": 688.5646895096597,
        "timestamp": "2025-12-27T21:25:02.900907+00:00",
        "meta_object_name": "IRIDIUM 33 DEB",
        "meta_object_id": "1997-051FJ",
        "meta_epoch": "2025-12-27T09:28:17.150016",
        "meta_mean_motion": 14.54169141,
        "meta_eccentricity": 0.0022979,
        "meta_inclination": 86.3683,
        "meta_ra_of_asc_node": 42.9376,
        "meta_arg_of_pericenter": 94.2033,
        "meta_mean_anomaly": 280.9076,
        "meta_ephemeris_type": 0,
        "meta_classification_type": "U",
        "meta_norad_cat_id": 34366,
        "meta_element_set_no": 999,
        "meta_rev_at_epoch": 88395,
        "meta_bstar": 0.00097859,
        "meta_mean_motion_dot": 4.173e-05,
        "meta_mean_motion_ddot": 0,
        "tle_line1": "1 34366U 97051FJ  25361.39464294  .00004173  00000+0  97859-3 0  9997",
        "tle_line2": "2 34366  86.3683  42.9376 0022979  94.2033 280.9076 14.54169141883950"
      },
      "geometry": {
        "type": "Point",
        "coordinates": [
          -158.60781356856086,
          80.09503470026735
        ]
      }
    },
    {
      "type": "Feature",
      "properties": {
        "norad_id": 34375,
        "name": "IRIDIUM 33 DEB",
        "group": "iridium-33-debris",
        "lat": -28.38602871632704,
        "lon": -1.4740684790876994,
        "alt_km": 884.5381967582925,
        "timestamp": "2025-12-27T21:25:02.900917+00:00",
        "meta_object_name": "IRIDIUM 33 DEB",
        "meta_object_id": "1997-051FT",
        "meta_epoch": "2025-12-27T12:05:31.795008",
        "meta_mean_motion": 14.18019347,
        "meta_eccentricity": 0.010367,
        "meta_inclination": 86.4324,
        "meta_ra_of_asc_node": 176.7506,
        "meta_arg_of_pericenter": 80.567,
        "meta_mean_anomaly": 304.5575,
        "meta_ephemeris_type": 0,
        "meta_classification_type": "U",
        "meta_norad_cat_id": 34375,
        "meta_element_set_no": 999,
        "meta_rev_at_epoch": 86921,
        "meta_bstar": 0.00045485,
        "meta_mean_motion_dot": 1.002e-05,
        "meta_mean_motion_ddot": 0,
        "tle_line1": "1 34375U 97051FT  25361.50384022  .00001002  00000+0  45485-3 0  9996",
        "tle_line2": "2 34375  86.4324 176.7506 0103670  80.5670 304.5575 14.18019347869219"
      },
      "geometry": {
        "type": "Point",
        "coordinates": [
          -1.4740684790876994,
          -28.38602871632704
        ]
      }
    },
    {
      "type": "Feature",
      "properties": {
        "norad_id": 34376,
        "name": "IRIDIUM 33 DEB",
        "group": "iridium-33-debris",
        "lat": 47.051617321557046,
        "lon": 175.73839555949235,
        "alt_km": 660.6181190746447,
        "timestamp": "2025-12-27T21:25:02.900928+00:00",
        "meta_object_name": "IRIDIUM 33 DEB",
        "meta_object_id": "1997-051FU",
        "meta_epoch": "2025-12-26T23:28:16.470624",
        "meta_mean_motion": 14.62769588,
        "meta_eccentricity": 0.002868,
        "meta_inclination": 86.2986,
        "meta_ra_of_asc_node": 0.1373,
        "meta_arg_of_pericenter": 120.2874,
        "meta_mean_anomaly": 240.1181,
        "meta_ephemeris_type": 0,
        "meta_classification_type": "U",
        "meta_norad_cat_id": 34376,
        "meta_element_set_no": 999,
        "meta_rev_at_epoch": 88215,
        "meta_bstar": 0.0018717,
        "meta_mean_motion_dot": 9.625e-05,
        "meta_mean_motion_ddot": 0,
        "tle_line1": "1 34376U 97051FU  25360.97796841  .00009625  00000+0  18717-2 0  9999",
        "tle_line2": "2 34376  86.2986   0.1373 0028680 120.2874 240.1181 14.62769588882153"
      },
      "geometry": {
        "type": "Point",
        "coordinates": [
          175.73839555949235,
          47.051617321557046
        ]
      }
    },
    {
      "type": "Feature",
      "properties": {
        "norad_id": 34486,
        "name": "IRIDIUM 33 DEB",
        "group": "iridium-33-debris",
        "lat": 11.67668221583729,
        "lon": 5.772971183912187,
        "alt_km": 573.8495706965477,
        "timestamp": "2025-12-27T21:25:02.900938+00:00",
        "meta_object_name": "IRIDIUM 33 DEB",
        "meta_object_id": "1997-051GB",
        "meta_epoch": "2025-12-27T06:59:53.439936",
        "meta_mean_motion": 14.96479608,
        "meta_eccentricity": 0.0013905,
        "meta_inclination": 86.394,
        "meta_ra_of_asc_node": 5.3037,
        "meta_arg_of_pericenter": 70.6899,
        "meta_mean_anomaly": 306.6609,
        "meta_ephemeris_type": 0,
        "meta_classification_type": "U",
        "meta_norad_cat_id": 34486,
        "meta_element_set_no": 999,
        "meta_rev_at_epoch": 89204,
        "meta_bstar": 0.0025812,
        "meta_mean_motion_dot": 0.00029467,
        "meta_mean_motion_ddot": 0,
        "tle_line1": "1 34486U 97051GB  25361.29159074  .00029467  00000+0  25812-2 0  9998",
        "tle_line2": "2 34486  86.3940   5.3037 0013905  70.6899 306.6609 14.96479608892049"
      },
      "geometry": {
        "type": "Point",
        "coordinates": [
          5.772971183912187,
          11.67668221583729
        ]
      }
    },
    {
      "type": "Feature",
      "properties": {
        "norad_id": 34487,
        "name": "IRIDIUM 33 DEB",
        "group": "iridium-33-debris",
        "lat": 24.986427239258546,
        "lon": 7.560845002583253,
        "alt_km": 733.8013628213521,
        "timestamp": "2025-12-27T21:25:02.900949+00:00",
        "meta_object_name": "IRIDIUM 33 DEB",
        "meta_object_id": "1997-051GC",
        "meta_epoch": "2025-12-26T00:37:21.163296",
        "meta_mean_motion": 14.43232747,
        "meta_eccentricity": 0.00332617,
        "meta_inclination": 86.3429,
        "meta_ra_of_asc_node": 6.6563,
        "meta_arg_of_pericenter": 87.1121,
        "meta_mean_anomaly": 327.0907,
        "meta_ephemeris_type": 0,
        "meta_classification_type": "U",
        "meta_norad_cat_id": 34487,
        "meta_element_set_no": 999,
        "meta_rev_at_epoch": 88440,
        "meta_bstar": 0.00018559814,
        "meta_mean_motion_dot": 6.49e-06,
        "meta_mean_motion_ddot": 0,
        "tle_line1": "1 34487U 97051GC  25360.02593939  .00000649  00000+0  18560-3 0  9995",
        "tle_line2": "2 34487  86.3429   6.6563 0033261  87.1121 327.0907 14.43232747884400"
      },
      "geometry": {
        "type": "Point",
        "coordinates": [
          7.560845002583253,
          24.986427239258546
        ]
      }
    },
    {
      "type": "Feature",
      "properties": {
        "norad_id": 34488,
        "name": "IRIDIUM 33 DEB",
        "group": "iridium-33-debris",
        "lat": 67.68058312736567,
        "lon": 109.28121523713419,
        "alt_km": 458.34419624047405,
        "timestamp": "2025-12-27T21:25:02.900959+00:00",
        "meta_object_name": "IRIDIUM 33 DEB",
        "meta_object_id": "1997-051GD",
        "meta_epoch": "2025-12-27T02:08:12.094368",
        "meta_mean_motion": 15.33259084,
        "meta_eccentricity": 0.00080848,
        "meta_inclination": 86.3256,
        "meta_ra_of_asc_node": 298.6875,
        "meta_arg_of_pericenter": 29.5801,
        "meta_mean_anomaly": 330.5905,
        "meta_ephemeris_type": 0,
        "meta_classification_type": "U",
        "meta_norad_cat_id": 34488,
        "meta_element_set_no": 999,
        "meta_rev_at_epoch": 89459,
        "meta_bstar": 0.0056271012,
        "meta_mean_motion_dot": 0.00185034,
        "meta_mean_motion_ddot": 0,
        "tle_line1": "1 34488U 97051GD  25361.08902887  .00185034  00000+0  56271-2 0  9991",
        "tle_line2": "2 34488  86.3256 298.6875 0008084  29.5801 330.5905 15.33259084894599"
      },
      "geometry": {
        "type": "Point",
        "coordinates": [
          109.28121523713419,
          67.68058312736567
        ]
      }
    },
    {
      "type": "Feature",
      "properties": {
        "norad_id": 34492,
        "name": "IRIDIUM 33 DEB",
        "group": "iridium-33-debris",
        "lat": -70.94546537158041,
        "lon": 158.78964460116956,
        "alt_km": 747.4449647240845,
        "timestamp": "2025-12-27T21:25:02.900971+00:00",
        "meta_object_name": "IRIDIUM 33 DEB",
        "meta_object_id": "1997-051GH",
        "meta_epoch": "2025-12-26T22:37:45.027264",
        "meta_mean_motion": 14.25970282,
        "meta_eccentricity": 0.0188844,
        "meta_inclination": 86.473,
        "meta_ra_of_asc_node": 328.887,
        "meta_arg_of_pericenter": 192.0084,
        "meta_mean_anomaly": 226.0259,
        "meta_ephemeris_type": 0,
        "meta_classification_type": "U",
        "meta_norad_cat_id": 34492,
        "meta_element_set_no": 999,
        "meta_rev_at_epoch": 85261,
        "meta_bstar": 0.0032813,
        "meta_mean_motion_dot": 9.462e-05,
        "meta_mean_motion_ddot": 0,
        "tle_line1": "1 34492U 97051GH  25360.94288226  .00009462  00000+0  32813-2 0  9990",
        "tle_line2": "2 34492  86.4730 328.8870 0188844 192.0084 226.0259 14.25970282852613"
      },
      "geometry": {
        "type": "Point",
        "coordinates": [
          158.78964460116956,
          -70.94546537158041
        ]
      }
    }
  ]
}